[{"OBJECT_NAME":"IRIDIUM 134","OBJECT_ID":"2017-083F","EPOCH":"2026-03-09T21:58:07.186944","MEAN_MOTION":14.34217743,"ECCENTRICITY":0.00020775,"INCLINATION":86.4026,"RA_OF_ASC_NODE":3.549,"ARG_OF_PERICENTER":86.3687,"MEAN_ANOMALY":273.7747,"EPHEMERIS_TYPE":0,"CLASSIFICATION_TYPE":"U","NORAD_CAT_ID":43075,"ELEMENT_SET_NO":999,"REV_AT_EPOCH":42987,"BSTAR":2.4162884e-5,"MEAN_MOTION_DOT":8.7e-7,"MEAN_MOTION_DDOT":0},{"OBJECT_NAME":"NOAA 16 DEB","OBJECT_ID":"2000-055N","EPOCH":"2026-03-09T19:19:43.686336","MEAN_MOTION":14.35469486,"ECCENTRICITY":0.00168984,"INCLINATION":98.7827,"RA_OF_ASC_NODE":181.9267,"ARG_OF_PERICENTER":140.6571,"MEAN_ANOMALY":219.5845,"EPHEMERIS_TYPE":0,"CLASSIFICATION_TYPE":"U","NORAD_CAT_ID":41055,"ELEMENT_SET_NO":999,"REV_AT_EPOCH":53332,"BSTAR":0.0019106016,"MEAN_MOTION_DOT":5.459e-5,"MEAN_MOTION_DDOT":0}]
